{
  "type": "FeatureCollection",
  "features": [
    {
      "type": "Feature",
      "properties": {
        "norad_id": 64694,
        "name": "GOSAT-GW (IBUKI GW)",
        "group": "resource",
        "lat": 42.883103735267916,
        "lon": -77.47787654547045,
        "alt_km": 664.5243610977568,
        "timestamp": "2025-12-20T16:47:35.949438+00:00",
        "meta_object_name": "GOSAT-GW (IBUKI GW)",
        "meta_object_id": "2025-141A",
        "meta_epoch": "2025-12-20T13:19:24.604896",
        "meta_mean_motion": 14.67565678,
        "meta_eccentricity": 0.0001462,
        "meta_inclination": 98.0435,
        "meta_ra_of_asc_node": 289.9265,
        "meta_arg_of_pericenter": 83.9191,
        "meta_mean_anomaly": 276.218,
        "meta_ephemeris_type": 0,
        "meta_classification_type": "U",
        "meta_norad_cat_id": 64694,
        "meta_element_set_no": 999,
        "meta_rev_at_epoch": 2564,
        "meta_bstar": 0.00010035,
        "meta_mean_motion_dot": 5.22e-06,
        "meta_mean_motion_ddot": 0,
        "tle_line1": "1 64694U 25141A   25354.55514589  .00000522  00000+0  10035-3 0  9993",
        "tle_line2": "2 64694  98.0435 289.9265 0001462  83.9191 276.2180 14.67565678 25643"
      },
      "geometry": {
        "type": "Point",
        "coordinates": [
          -77.47787654547045,
          42.883103735267916
        ]
      }
    },
    {
      "type": "Feature",
      "properties": {
        "norad_id": 64876,
        "name": "IONOSFERA-M 3",
        "group": "resource",
        "lat": 13.204496228264821,
        "lon": 138.37067512722763,
        "alt_km": 822.2443757041638,
        "timestamp": "2025-12-20T16:47:35.949448+00:00",
        "meta_object_name": "IONOSFERA-M 3",
        "meta_object_id": "2025-155A",
        "meta_epoch": "2025-12-20T12:38:01.667616",
        "meta_mean_motion": 14.2144277,
        "meta_eccentricity": 0.0002018,
        "meta_inclination": 98.5793,
        "meta_ra_of_asc_node": 316.1724,
        "meta_arg_of_pericenter": 47.5658,
        "meta_mean_anomaly": 312.5691,
        "meta_ephemeris_type": 0,
        "meta_classification_type": "U",
        "meta_norad_cat_id": 64876,
        "meta_element_set_no": 999,
        "meta_rev_at_epoch": 2102,
        "meta_bstar": 3.5862e-05,
        "meta_mean_motion_dot": 3.6e-07,
        "meta_mean_motion_ddot": 0,
        "tle_line1": "1 64876U 25155A   25354.52640819  .00000036  00000+0  35862-4 0  9999",
        "tle_line2": "2 64876  98.5793 316.1724 0002018  47.5658 312.5691 14.21442770 21028"
      },
      "geometry": {
        "type": "Point",
        "coordinates": [
          138.37067512722763,
          13.204496228264821
        ]
      }
    },
    {
      "type": "Feature",
      "properties": {
        "norad_id": 64877,
        "name": "IONOSFERA-M 4",
        "group": "resource",
        "lat": -12.784885655609417,
        "lon": -41.77667876000046,
        "alt_km": 824.5184097280699,
        "timestamp": "2025-12-20T16:47:35.949458+00:00",
        "meta_object_name": "IONOSFERA-M 4",
        "meta_object_id": "2025-155B",
        "meta_epoch": "2025-12-20T11:47:09.089952",
        "meta_mean_motion": 14.21443914,
        "meta_eccentricity": 0.0001419,
        "meta_inclination": 98.5792,
        "meta_ra_of_asc_node": 316.0575,
        "meta_arg_of_pericenter": 55.8426,
        "meta_mean_anomaly": 304.2886,
        "meta_ephemeris_type": 0,
        "meta_classification_type": "U",
        "meta_norad_cat_id": 64877,
        "meta_element_set_no": 999,
        "meta_rev_at_epoch": 2101,
        "meta_bstar": 3.6705e-05,
        "meta_mean_motion_dot": 3.8e-07,
        "meta_mean_motion_ddot": 0,
        "tle_line1": "1 64877U 25155B   25354.49107743  .00000038  00000+0  36705-4 0  9999",
        "tle_line2": "2 64877  98.5792 316.0575 0001419  55.8426 304.2886 14.21443914 21014"
      },
      "geometry": {
        "type": "Point",
        "coordinates": [
          -41.77667876000046,
          -12.784885655609417
        ]
      }
    },
    {
      "type": "Feature",
      "properties": {
        "norad_id": 64899,
        "name": "MICROCARB",
        "group": "resource",
        "lat": 29.490281618559557,
        "lon": -105.51976043207127,
        "alt_km": 642.3111025145581,
        "timestamp": "2025-12-20T16:47:35.949468+00:00",
        "meta_object_name": "MICROCARB",
        "meta_object_id": "2025-156A",
        "meta_epoch": "2025-12-20T04:41:43.963008",
        "meta_mean_motion": 14.72068313,
        "meta_eccentricity": 0.0017493,
        "meta_inclination": 98.0018,
        "meta_ra_of_asc_node": 69.4214,
        "meta_arg_of_pericenter": 122.322,
        "meta_mean_anomaly": 237.9684,
        "meta_ephemeris_type": 0,
        "meta_classification_type": "U",
        "meta_norad_cat_id": 64899,
        "meta_element_set_no": 999,
        "meta_rev_at_epoch": 2163,
        "meta_bstar": 8.854e-05,
        "meta_mean_motion_dot": 5.08e-06,
        "meta_mean_motion_ddot": 0,
        "tle_line1": "1 64899U 25156A   25354.19564772  .00000508  00000+0  88540-4 0  9996",
        "tle_line2": "2 64899  98.0018  69.4214 0017493 122.3220 237.9684 14.72068313 21632"
      },
      "geometry": {
        "type": "Point",
        "coordinates": [
          -105.51976043207127,
          29.490281618559557
        ]
      }
    },
    {
      "type": "Feature",
      "properties": {
        "norad_id": 64900,
        "name": "CO3D 3",
        "group": "resource",
        "lat": 50.769145514304924,
        "lon": -99.84374899241105,
        "alt_km": 499.99423459483114,
        "timestamp": "2025-12-20T16:47:35.949478+00:00",
        "meta_object_name": "CO3D 3",
        "meta_object_id": "2025-156B",
        "meta_epoch": "2025-12-20T11:29:26.170368",
        "meta_mean_motion": 15.20203381,
        "meta_eccentricity": 0.0001357,
        "meta_inclination": 97.4346,
        "meta_ra_of_asc_node": 70.7354,
        "meta_arg_of_pericenter": 79.5846,
        "meta_mean_anomaly": 280.5542,
        "meta_ephemeris_type": 0,
        "meta_classification_type": "U",
        "meta_norad_cat_id": 64900,
        "meta_element_set_no": 999,
        "meta_rev_at_epoch": 2238,
        "meta_bstar": 0.00024352,
        "meta_mean_motion_dot": 5.208e-05,
        "meta_mean_motion_ddot": 0,
        "tle_line1": "1 64900U 25156B   25354.47877512  .00005208  00000+0  24352-3 0  9991",
        "tle_line2": "2 64900  97.4346  70.7354 0001357  79.5846 280.5542 15.20203381 22381"
      },
      "geometry": {
        "type": "Point",
        "coordinates": [
          -99.84374899241105,
          50.769145514304924
        ]
      }
    },
    {
      "type": "Feature",
      "properties": {
        "norad_id": 64901,
        "name": "CO3D 4",
        "group": "resource",
        "lat": 51.42614002230831,
        "lon": -99.62448977437927,
        "alt_km": 499.76887062276273,
        "timestamp": "2025-12-20T16:47:35.949488+00:00",
        "meta_object_name": "CO3D 4",
        "meta_object_id": "2025-156C",
        "meta_epoch": "2025-12-19T14:57:26.055072",
        "meta_mean_motion": 15.20230123,
        "meta_eccentricity": 0.0001264,
        "meta_inclination": 97.434,
        "meta_ra_of_asc_node": 69.8917,
        "meta_arg_of_pericenter": 174.7354,
        "meta_mean_anomaly": 185.3894,
        "meta_ephemeris_type": 0,
        "meta_classification_type": "U",
        "meta_norad_cat_id": 64901,
        "meta_element_set_no": 999,
        "meta_rev_at_epoch": 2225,
        "meta_bstar": 0.00021367,
        "meta_mean_motion_dot": 4.564e-05,
        "meta_mean_motion_ddot": 0,
        "tle_line1": "1 64901U 25156C   25353.62321823  .00004564  00000+0  21367-3 0  9994",
        "tle_line2": "2 64901  97.4340  69.8917 0001264 174.7354 185.3894 15.20230123 22251"
      },
      "geometry": {
        "type": "Point",
        "coordinates": [
          -99.62448977437927,
          51.42614002230831
        ]
      }
    },
    {
      "type": "Feature",
      "properties": {
        "norad_id": 64902,
        "name": "CO3D 2",
        "group": "resource",
        "lat": -49.44486438463065,
        "lon": 79.62770641748389,
        "alt_km": 512.2791412484103,
        "timestamp": "2025-12-20T16:47:35.949498+00:00",
        "meta_object_name": "CO3D 2",
        "meta_object_id": "2025-156D",
        "meta_epoch": "2025-12-18T23:56:22.431840",
        "meta_mean_motion": 15.20201426,
        "meta_eccentricity": 6.127e-05,
        "meta_inclination": 97.4339,
        "meta_ra_of_asc_node": 69.1735,
        "meta_arg_of_pericenter": 62.3895,
        "meta_mean_anomaly": 297.7402,
        "meta_ephemeris_type": 0,
        "meta_classification_type": "U",
        "meta_norad_cat_id": 64902,
        "meta_element_set_no": 999,
        "meta_rev_at_epoch": 2215,
        "meta_bstar": 2.1688322e-05,
        "meta_mean_motion_dot": 4.02e-06,
        "meta_mean_motion_ddot": 0,
        "tle_line1": "1 64902U 25156D   25352.99748185  .00000402  00000+0  21688-4 0  9992",
        "tle_line2": "2 64902  97.4339  69.1735 0000612  62.3895 297.7402 15.20201426 22155"
      },
      "geometry": {
        "type": "Point",
        "coordinates": [
          79.62770641748389,
          -49.44486438463065
        ]
      }
    }
  ]
}